NORAD_CAT_ID,OBJECT_NAME,OBJECT_TYPE,EPOCH,MEAN_MOTION,ECCENTRICITY,INCLINATION,RA_OF_ASC_NODE,ARG_OF_PERICENTER,MEAN_ANOMALY,BSTAR,MEAN_MOTION_DOT,MEAN_MOTION_DDOT,TLE_LINE0,TLE_LINE1,TLE_LINE2,SEMIMAJOR_AXIS,PERIOD,APOGEE,PERIGEE,DECAYED
54181.0,STARLINK-5227,PAYLOAD,2024-07-23 03:18:25,15.0882762,0.0001113,53.2166,152.9433,105.6573,254.4542,-6.4078e-05,-1.307e-05,0.0,0 STARLINK-5227,1 54181U 22141AA  24205.13779672 -.00001307  00000-0 -64078-4 0  9996,2 54181  53.2166 152.9433 0001113 105.6573 254.4542 15.08827620 96330,6917.918,95.438,540.553,539.013,0.0
54181.0,STARLINK-5227,PAYLOAD,2024-07-23 20:47:40,15.08894934,0.0002407,53.2163,149.6706,151.7899,208.3224,-0.0010878,-0.00017586,0.0,0 STARLINK-5227,1 54181U 22141AA  24205.86644526 -.00017586  00000-0 -10878-2 0  9998,2 54181  53.2163 149.6706 0002407 151.7899 208.3224 15.08894934 96442,6917.712,95.434,541.243,537.912,0.0
54181.0,STARLINK-5227,PAYLOAD,2024-07-24 03:09:13,15.08826563,0.0001236,53.2174,148.4807,102.2236,257.8894,-7.6851e-05,-1.51e-05,0.0,0 STARLINK-5227,1 54181U 22141AA  24206.13140610 -.00001510  00000-0 -76851-4 0  9999,2 54181  53.2174 148.4807 0001236 102.2236 257.8894 15.08826563 96487,6917.921,95.438,540.642,538.931,0.0
54181.0,STARLINK-5227,PAYLOAD,2024-07-24 20:38:27,15.08825333,0.0001104,53.2174,145.2092,96.6883,263.4235,0.00017961,2.571e-05,0.0,0 STARLINK-5227,1 54181U 22141AA  24206.86003787  .00002571  00000-0  17961-3 0  9994,2 54181  53.2174 145.2092 0001104  96.6883 263.4235 15.08825333 96594,6917.925,95.438,540.554,539.026,0.0
54181.0,STARLINK-5227,PAYLOAD,2024-07-25 01:24:36,15.0883414,0.0001096,53.2166,144.3166,73.1313,286.9799,0.00023852,3.51e-05,0.0,0 STARLINK-5227,1 54181U 22141AA  24207.05875362  .00003510  00000-0  23852-3 0  9992,2 54181  53.2166 144.3166 0001096  73.1313 286.9799 15.08834140 96620,6917.898,95.438,540.522,539.005,0.0
54181.0,STARLINK-5227,PAYLOAD,2024-07-25 06:10:45,15.08836483,0.0001157,53.2173,143.4248,81.7125,278.3999,0.0002663,3.952e-05,0.0,0 STARLINK-5227,1 54181U 22141AA  24207.25747254  .00003952  00000-0  26630-3 0  9999,2 54181  53.2173 143.4248 0001157  81.7125 278.3999 15.08836483 96420,6917.891,95.438,540.557,538.956,0.0
54181.0,STARLINK-5227,PAYLOAD,2024-07-25 20:29:14,15.08830717,0.0001225,53.2165,140.7451,99.8152,260.2978,0.00012691,1.732e-05,0.0,0 STARLINK-5227,1 54181U 22141AA  24207.85364367  .00001732  00000-0  12691-3 0  9991,2 54181  53.2165 140.7451 0001225  99.8152 260.2978 15.08830717 96749,6917.909,95.438,540.621,538.926,0.0
54181.0,STARLINK-5227,PAYLOAD,2024-07-26 04:26:10,15.08836122,0.0001083,53.2171,139.2662,83.9674,276.1442,0.00017214,2.453e-05,0.0,0 STARLINK-5227,1 54181U 22141AA  24208.18484168  .00002453  00000-0  17214-3 0  9997,2 54181  53.2171 139.2662 0001083  83.9674 276.1442 15.08836122 96566,6917.892,95.438,540.506,539.008,0.0
54181.0,STARLINK-5227,PAYLOAD,2024-07-26 12:23:06,15.08837602,0.0001363,53.2182,137.7831,111.1274,248.9864,0.00012245,1.661e-05,0.0,0 STARLINK-5227,1 54181U 22141AA  24208.51604309  .00001661  00000-0  12245-3 0  9994,2 54181  53.2182 137.7831 0001363 111.1274 248.9864 15.08837602 96615,6917.888,95.438,540.696,538.81,0.0
54181.0,STARLINK-5227,PAYLOAD,2024-07-27 18:35:25,15.0883816,0.0001199,53.2172,132.1298,84.5261,275.5868,3.417e-05,2.56e-06,0.0,0 STARLINK-5227,1 54181U 22141AA  24209.77460413  .00000256  00000-0  34170-4 0  9990,2 54181  53.2172 132.1298 0001199  84.5261 275.5868 15.08838160 96807,6917.886,95.438,540.58,538.922,0.0
54181.0,STARLINK-5227,PAYLOAD,2024-07-28 02:32:21,15.08836429,0.0001165,53.2172,130.6409,75.0201,285.092,1.676e-05,-2.1e-07,0.0,0 STARLINK-5227,1 54181U 22141AA  24210.10580735 -.00000021  00000-0  16760-4 0  9995,2 54181  53.2172 130.6409 0001165  75.0201 285.0920 15.08836429 97088,6917.891,95.438,540.562,538.95,0.0
54181.0,STARLINK-5227,PAYLOAD,2024-07-28 18:26:13,15.08834073,0.000136,53.2183,127.6682,83.1041,277.0106,2.5647e-07,-2.84e-06,0.0,0 STARLINK-5227,1 54181U 22141AA  24210.76821123 -.00000284  00000-0  25647-6 0  9993,2 54181  53.2183 127.6682 0001360  83.1041 277.0106 15.08834073 96953,6917.899,95.438,540.704,538.823,0.0
54181.0,STARLINK-5227,PAYLOAD,2024-07-29 11:55:26,15.08840846,0.0001203,53.2159,124.3989,75.9146,284.198,0.00018504,2.658e-05,0.0,0 STARLINK-5227,1 54181U 22141AA  24211.49683870  .00002658  00000-0  18504-3 0  9996,2 54181  53.2159 124.3989 0001203  75.9146 284.1980 15.08840846 97293,6917.878,95.438,540.575,538.911,0.0
54181.0,STARLINK-5227,PAYLOAD,2024-07-29 21:27:46,15.08836822,0.0001278,53.2169,122.6147,78.6799,281.4336,0.00011787,1.588e-05,0.0,0 STARLINK-5227,1 54181U 22141AA  24211.89428451  .00001588  00000-0  11787-3 0  9999,2 54181  53.2169 122.6147 0001278  78.6799 281.4336 15.08836822 97358,6917.89,95.438,540.639,538.871,0.0
54181.0,STARLINK-5227,PAYLOAD,2024-07-30 00:38:31,15.08845293,0.0001508,53.2176,122.0174,102.6943,257.4218,0.00014869,2.08e-05,0.0,0 STARLINK-5227,1 54181U 22141AA  24212.02675795  .00002080  00000-0  14869-3 0  9992,2 54181  53.2176 122.0174 0001508 102.6943 257.4218 15.08845293 97371,6917.864,95.437,540.772,538.686,0.0
54181.0,STARLINK-5227,PAYLOAD,2024-07-30 22:53:56,15.08826765,0.0001452,53.2173,117.8548,100.7524,259.3632,0.00018598,2.672e-05,0.0,0 STARLINK-5227,1 54181U 22141AA  24212.95412917  .00002672  00000-0  18598-3 0  9999,2 54181  53.2173 117.8548 0001452 100.7524 259.3632 15.08826765 97281,6917.921,95.438,540.79,538.781,0.0
54181.0,STARLINK-5227,PAYLOAD,2024-07-31 00:29:20,15.08794744,0.0001817,53.2176,117.5559,104.3501,255.7693,0.00063107,9.757e-05,0.0,0 STARLINK-5227,1 54181U 22141AA  24213.02037466  .00009757  00000-0  63107-3 0  9997,2 54181  53.2176 117.5559 0001817 104.3501 255.7693 15.08794744 97528,6918.019,95.44,541.141,538.627,0.0
54181.0,STARLINK-5227,PAYLOAD,2024-07-31 21:09:21,15.08834446,0.0001317,53.217,113.6941,94.4246,265.6896,-6.7563e-05,-1.363e-05,0.0,0 STARLINK-5227,1 54181U 22141AA  24213.88149322 -.00001363  00000-0 -67563-4 0  9994,2 54181  53.2170 113.6941 0001317  94.4246 265.6896 15.08834446 97657,6917.897,95.438,540.673,538.851,0.0
54181.0,STARLINK-5227,PAYLOAD,2024-07-31 22:44:43,15.08836324,0.0001448,53.2171,113.3948,101.8932,258.2222,-5.7448e-05,-1.202e-05,0.0,0 STARLINK-5227,1 54181U 22141AA  24213.94773147 -.00001202  00000-0 -57448-4 0  9992,2 54181  53.2171 113.3948 0001448 101.8932 258.2222 15.08836324 97436,6917.892,95.438,540.758,538.755,0.0
54181.0,STARLINK-5227,PAYLOAD,2024-08-01 21:00:07,15.08850723,0.0001301,53.2178,109.2348,89.9393,270.1748,4.2667e-05,3.91e-06,0.0,0 STARLINK-5227,1 54181U 22141AA  24214.87508155  .00000391  00000-0  42667-4 0  9993,2 54181  53.2178 109.2348 0001301  89.9393 270.1748 15.08850723 97802,6917.848,95.437,540.613,538.813,0.0
54181.0,STARLINK-5227,PAYLOAD,2024-08-01 22:35:29,15.08858469,0.0001338,53.2174,108.937,88.3485,271.7661,1.2449e-05,-9e-07,0.0,0 STARLINK-5227,1 54181U 22141AA  24214.94131790 -.00000090  00000-0  12449-4 0  9990,2 54181  53.2174 108.9370 0001338  88.3485 271.7661 15.08858469 97585,6917.824,95.436,540.615,538.763,0.0
54181.0,STARLINK-5227,PAYLOAD,2024-08-02 09:43:12,15.08847849,0.0001285,53.2159,106.8562,81.0577,279.0561,7.0057e-05,8.27e-06,0.0,0 STARLINK-5227,1 54181U 22141AA  24215.40500036  .00000827  00000-0  70057-4 0  9991,2 54181  53.2159 106.8562 0001285  81.0577 279.0561 15.08847849 97659,6917.856,95.437,540.61,538.832,0.0
54181.0,STARLINK-5227,PAYLOAD,2024-08-02 20:50:56,15.08822877,0.0001362,53.2176,104.7748,92.6993,267.4155,-2.8786e-05,-7.46e-06,0.0,0 STARLINK-5227,1 54181U 22141AA  24215.86870374 -.00000746  00000-0 -28786-4 0  9990,2 54181  53.2176 104.7748 0001362  92.6993 267.4155 15.08822877 97954,6917.933,95.439,540.74,538.856,0.0
54181.0,STARLINK-5227,PAYLOAD,2024-08-02 22:26:19,15.08824688,0.0001473,53.2174,104.477,89.3316,270.7845,-9.8197e-06,-4.44e-06,0.0,0 STARLINK-5227,1 54181U 22141AA  24215.93494329 -.00000444  00000-0 -98197-5 0  9999,2 54181  53.2174 104.4770 0001473  89.3316 270.7845 15.08824688 97730,6917.927,95.439,540.811,538.773,0.0
54181.0,STARLINK-5227,PAYLOAD,2024-08-03 00:01:41,15.0883136,0.0001331,53.2168,104.1782,77.708,282.4061,5.2008e-05,5.4e-06,0.0,0 STARLINK-5227,1 54181U 22141AA  24216.00117852  .00000540  00000-0  52008-4 0  9996,2 54181  53.2168 104.1782 0001331  77.7080 282.4061 15.08831360 97976,6917.907,95.438,540.693,538.851,0.0
54181.0,STARLINK-5227,PAYLOAD,2024-08-03 09:34:00,15.08837182,0.0001331,53.2174,102.3902,88.0565,272.058,4.4118e-05,4.14e-06,0.0,0 STARLINK-5227,1 54181U 22141AA  24216.39861543  .00000414  00000-0  44118-4 0  9994,2 54181  53.2174 102.3902 0001331  88.0565 272.0580 15.08837182 97801,6917.889,95.438,540.675,538.833,0.0
54181.0,STARLINK-5227,PAYLOAD,2024-08-03 20:41:41,15.08851907,0.0001357,53.2169,100.3123,93.6449,266.4698,5.6866e-05,6.17e-06,0.0,0 STARLINK-5227,1 54181U 22141AA  24216.86228666  .00000617  00000-0  56866-4 0  9997,2 54181  53.2169 100.3123 0001357  93.6449 266.4698 15.08851907 98101,6917.844,95.437,540.648,538.77,0.0
54181.0,STARLINK-5227,PAYLOAD,2024-08-03 23:52:27,15.08857751,0.000134,53.2168,99.7183,92.435,267.6796,0.00010523,1.388e-05,0.0,0 STARLINK-5227,1 54181U 22141AA  24216.99476088  .00001388  00000-0  10523-3 0  9999,2 54181  53.2168  99.7183 0001340  92.4350 267.6796 15.08857751 98124,6917.826,95.436,540.618,538.764,0.0
54181.0,STARLINK-5227,PAYLOAD,2024-08-04 20:32:29,15.0884239,0.0001639,53.2164,95.8526,73.4601,286.6571,0.00028616,4.269e-05,0.0,0 STARLINK-5227,1 54181U 22141AA  24217.85589239  .00004269  00000-0  28616-3 0  9991,2 54181  53.2164  95.8526 0001639  73.4601 286.6571 15.08842390 98256,6917.873,95.437,540.872,538.604,0.0
54181.0,STARLINK-5227,PAYLOAD,2024-08-04 22:07:52,15.08843374,0.0001468,53.2158,95.5549,86.8041,273.3119,0.00028142,4.194e-05,0.0,0 STARLINK-5227,1 54181U 22141AA  24217.92213095  .00004194  00000-0  28142-3 0  9994,2 54181  53.2158  95.5549 0001468  86.8041 273.3119 15.08843374 98037,6917.87,95.437,540.751,538.72,0.0
